TEVEL2-4                
1 63213U 25052D   26068.69417973  .00020990  00000+0  70363-3 0  9998
2 63213  97.4009 325.1237 0004733  95.3468 264.8313 15.30925813 54879
STARLINK-33882          
1 63788U 25091P   26067.97865993  .00031961  00000+0  11651-2 0  9991
2 63788  43.0012  56.5202 0001337 173.0414 187.0457 15.27604135 48781
